{"type": "Feature","id": "4880","bbox": [1.55561,42.49051,1.71709,42.57455],"geometry": {"type": "Polygon","coordinates": [[[1.71709,42.53989,2382.1572],[1.71029,42.54481,2334.48],[1.70062,42.54927,2111.9624],[1.69021,42.55299,2005.8717],[1.68649,42.56563,2259.9524],[1.68277,42.57455,2216.5493],[1.66864,42.57009,2027.3174],[1.64931,42.57009,2061.6692],[1.62849,42.56786,2052.2363],[1.60469,42.56414,1720.0085],[1.58535,42.56414,1852.5735],[1.57122,42.56414,1975.9735],[1.55561,42.56265,1660.5522],[1.55635,42.55224,1842.1273],[1.55635,42.53811,1932.8035],[1.56899,42.53886,1596.8282],[1.57643,42.53588,1299.3055],[1.5794,42.52696,1596.8003],[1.59279,42.52175,1946.7095],[1.60841,42.52398,1948.5952],[1.62923,42.5225,2297.3333],[1.64113,42.51804,2457.5295],[1.65377,42.50985,2614.374],[1.65698,42.49764,2503.6367],[1.65977,42.49681,2522.3398],[1.66236,42.49371,2557.8167],[1.67424,42.49051,2324.8154],[1.68634,42.49061,2400.6455],[1.6975,42.49446,2415.585],[1.70701,42.50278,2572.606],[1.71062,42.52774,2358.0056],[1.71709,42.53989,2382.1572]]]}
,"properties": {"ISO3166-1-Alpha-3": "AND","country": "Andorra","fill": "#FF0","name": "Encamp","area_km2": 71.19216,"hist_schema_id": "Elevation0-9000","hist_area_km2": {"1250": 0.10936,"1275": 0.28122,"1300": 0.21872,"1325": 0.23434,"1350": 0.20309,"1375": 0.2187,"1400": 0.34368,"1425": 0.21871,"1450": 0.24993,"1475": 0.46861,"1500": 0.34365,"1525": 0.35927,"1550": 0.39051,"1575": 0.40614,"1600": 0.48423,"1625": 0.62479,"1650": 0.43735,"1675": 0.60921,"1700": 0.51545,"1725": 0.62483,"1750": 0.51546,"1775": 0.73414,"1800": 0.76543,"1825": 0.71858,"1850": 0.8435,"1875": 0.906,"1900": 0.95285,"1925": 1.04649,"1950": 1.23391,"1975": 1.29641,"2000": 1.39008,"2025": 1.48382,"2050": 1.48382,"2075": 1.84309,"2100": 1.70254,"2125": 1.98374,"2150": 1.73381,"2175": 1.79635,"2200": 2.01499,"2225": 1.96814,"2250": 2.20248,"2275": 2.32748,"2300": 2.39007,"2325": 2.46823,"2350": 2.39023,"2375": 2.35919,"2400": 2.37475,"2425": 2.71861,"2450": 2.50004,"2475": 2.10952,"2500": 1.76581,"2525": 1.29709,"2550": 1.6878,"2575": 1.6723,"2600": 1.2034,"2625": 1.21904,"2650": 1.26592,"2675": 1.03154,"2700": 0.68766,"2725": 0.4845,"2750": 0.35947,"2775": 0.40634,"2800": 0.40634,"2825": 0.07814,"2850": 0.03126}}}