{"type": "Feature","bbox": [1.5505,42.4802,1.7244,42.5536],"geometry": {"type": "MultiPolygon","coordinates": [[[[1.5678,42.5473,2108.6318],[1.5516,42.5329,1775.3236],[1.5505,42.5261,1801.49],[1.5634,42.524,1204.3452],[1.5693,42.5126,1733.3613],[1.5856,42.5057,2434.7288],[1.6007,42.506,2403.5205],[1.6096,42.5024,2366.0068],[1.6309,42.5018,2674.0469],[1.6494,42.491,2436.7581],[1.6616,42.4802,2676.7314],[1.6626,42.4936,2557.8167],[1.6704,42.5042,2794.3389],[1.6789,42.4955,2478.1809],[1.691,42.4948,2389.4441],[1.7036,42.4898,2276.1606],[1.7115,42.4923,2240.7207],[1.7219,42.5012,2348.3696],[1.7244,42.5094,2501.8291],[1.7241,42.5208,2579.6733],[1.7154,42.5284,2378.4521],[1.7,42.5367,2087.533],[1.7,42.5442,2063.332],[1.6962,42.5485,2028.6105],[1.6847,42.5536,2045.7205],[1.6648,42.5491,2425.2778],[1.6364,42.5494,2295.4529],[1.6101,42.5438,2281.0183],[1.5678,42.5473,2108.6318]]]]}
,"properties": {"GID_1": "AND.3_1","GID_0": "AND","country": "Andorra","state": "Encamp","VARNAME_1": "NA","NL_NAME_1": "NA","TYPE_1": "Parròquia","ENGTYPE_1": "Parish","CC_1": "NA","HASC_1": "AD.EN","ISO_1": "AD-03","name": "Encamp.state","area_km2": 68.22437,"hist_schema_id": "Elevation0-9000","hist_area_km2": {"1175": 0.01563,"1200": 0.07813,"1225": 0.23437,"1250": 0.37497,"1275": 0.45308,"1300": 0.54683,"1325": 0.34371,"1350": 0.37496,"1375": 0.24997,"1400": 0.4062,"1425": 0.31247,"1450": 0.26559,"1475": 0.31247,"1500": 0.35934,"1525": 0.35934,"1550": 0.31247,"1575": 0.42183,"1600": 0.4531,"1625": 0.5781,"1650": 0.40623,"1675": 0.59373,"1700": 0.45311,"1725": 0.5781,"1750": 0.3125,"1775": 0.39059,"1800": 0.57809,"1825": 0.54684,"1850": 0.48436,"1875": 0.60935,"1900": 0.62497,"1925": 0.54686,"1950": 0.51562,"1975": 0.5781,"2000": 0.64062,"2025": 0.76556,"2050": 0.95305,"2075": 0.9218,"2100": 0.99992,"2125": 1.32807,"2150": 1.17182,"2175": 1.2343,"2200": 1.39058,"2225": 1.56242,"2250": 1.81242,"2275": 1.87497,"2300": 2.25003,"2325": 2.46885,"2350": 2.25012,"2375": 2.594,"2400": 2.32833,"2425": 2.93794,"2450": 2.89113,"2475": 2.73488,"2500": 2.64123,"2525": 2.01618,"2550": 2.39119,"2575": 2.32877,"2600": 1.81298,"2625": 1.70359,"2650": 1.73482,"2675": 1.37539,"2700": 0.92211,"2725": 0.85962,"2750": 0.50014,"2775": 0.547,"2800": 0.48449,"2825": 0.09377,"2850": 0.03126}}}