{"type":"Feature","properties":{"ISO3166-1-Alpha-3":"AND","country":"Andorra","fill":"#F0F","id":"4879","name":"Canillo"},
"geometry":{"type": "Polygon","coordinates": [[[1.76111,42.56764,1841.0598],[1.76111,42.56765,1841.0598],[1.75269,42.57668,2390.3477],[1.72943,42.582,2582.8818],[1.71331,42.58955,2469.936],[1.72199,42.60986,2293.5459],[1.6083,42.61812,2542.4958],[1.59735,42.62192,2628.1997],[1.59874,42.60653,2612.491],[1.59874,42.59761,2392.075],[1.58833,42.59463,2445.9177],[1.57494,42.59166,2671.6868],[1.56453,42.58422,2666.6091],[1.55784,42.57455,2038.0148],[1.55561,42.56265,1660.5522],[1.57122,42.56414,1975.9735],[1.58535,42.56414,1852.5735],[1.60469,42.56414,1720.0085],[1.62849,42.56786,2052.2363],[1.64931,42.57009,2061.6692],[1.66864,42.57009,2027.3174],[1.68277,42.57455,2216.5493],[1.68649,42.56563,2259.9524],[1.69021,42.55299,2005.8717],[1.70062,42.54927,2111.9624],[1.71029,42.54481,2334.48],[1.71709,42.53989,2382.1572],[1.72168,42.54852,2339.7241],[1.73998,42.56164,2099.0657],[1.76509,42.56337,1794.6606],[1.76111,42.56764,1841.0598]]]}}