{"type": "Feature","bbox": [1.5678,42.5208,1.7842,42.6255],"geometry": {"type": "MultiPolygon","coordinates": [[[[1.7241,42.5208,2579.6733],[1.7327,42.5396,2135.3428],[1.7387,42.5655,2073.2671],[1.7554,42.5709,2047.3672],[1.7842,42.5757,1686.7522],[1.7784,42.5821,2064.1584],[1.7643,42.5808,2333.053],[1.7282,42.5896,2705.0901],[1.7275,42.5998,2479.0923],[1.738,42.6113,2696.1836],[1.7376,42.6128,2621.5747],[1.7229,42.6117,2310.3064],[1.6904,42.6223,2506.572],[1.6746,42.6179,2594.4158],[1.6645,42.617,2575.8997],[1.6584,42.6197,2651.7354],[1.6536,42.6242,2612.2805],[1.648,42.6255,2644.748],[1.6172,42.6241,2611.4001],[1.6102,42.622,2646.5542],[1.6096,42.6165,2629.9126],[1.6007,42.6094,2680.2527],[1.5944,42.6073,2704.7688],[1.5876,42.6013,2660.2549],[1.582,42.5999,2579.0442],[1.5729,42.5848,2572.4092],[1.568,42.5809,2520.7388],[1.5682,42.5707,2143.2798],[1.5738,42.559,2021.9415],[1.5723,42.5534,2015.8875],[1.5678,42.5473,2108.6318],[1.6101,42.5438,2281.0183],[1.6364,42.5494,2295.4529],[1.6648,42.5491,2425.2778],[1.6847,42.5536,2045.7205],[1.6962,42.5485,2028.6105],[1.7,42.5442,2063.332],[1.7,42.5367,2087.533],[1.7154,42.5284,2378.4521],[1.7241,42.5208,2579.6733]]]]}
,"properties": {"GID_1": "AND.2_1","GID_0": "AND","country": "Andorra","state": "Canillo","VARNAME_1": "NA","NL_NAME_1": "NA","TYPE_1": "Parròquia","ENGTYPE_1": "Parish","CC_1": "NA","HASC_1": "AD.CA","ISO_1": "AD-02","name": "Canillo.state","area_km2": 111.56278,"hist_schema_id": "Elevation0-9000","hist_area_km2": {"1375": 0.0781,"1400": 0.07809,"1425": 0.06247,"1450": 0.10933,"1475": 0.26551,"1500": 0.1718,"1525": 0.34356,"1550": 0.48409,"1575": 0.40602,"1600": 0.43725,"1625": 0.71829,"1650": 0.62457,"1675": 0.6402,"1700": 0.85881,"1725": 0.96807,"1750": 0.88999,"1775": 1.38959,"1800": 1.29588,"1825": 1.5768,"1850": 1.59248,"1875": 1.74855,"1900": 1.99838,"1925": 2.23257,"1950": 2.38876,"1975": 2.32635,"2000": 2.82585,"2025": 2.77897,"2050": 2.56044,"2075": 3.07569,"2100": 2.9664,"2125": 3.2629,"2150": 3.37229,"2175": 3.21598,"2200": 3.57518,"2225": 3.63761,"2250": 3.62204,"2275": 4.16836,"2300": 4.23072,"2325": 4.1684,"2350": 4.30893,"2375": 4.4962,"2400": 4.3401,"2425": 4.60545,"2450": 4.07451,"2475": 3.24699,"2500": 3.07531,"2525": 2.80991,"2550": 2.15416,"2575": 1.77948,"2600": 1.51409,"2625": 1.03015,"2650": 0.9209,"2675": 0.71798,"2700": 0.48384,"2725": 0.359,"2750": 0.1873,"2775": 0.2029,"2800": 0.09365,"2825": 0.0156}}}