{"type":"Feature","properties":{"ISO3166-1-Alpha-3":"AND","country":"Andorra","fill":"#F00","id":"4877","name":"La Massana"},
"geometry":{"type": "Polygon","coordinates": [[[1.45968,42.59686,2181.3296],[1.45141,42.60205,2709.4165],[1.4293,42.59539,2484.0476],[1.42485,42.58937,2706.5491],[1.41927,42.57926,2397.4495],[1.41803,42.56983,1952.4447],[1.4264,42.56565,2098.6577],[1.4263,42.5618,2396.8091],[1.40976,42.54061,2295.3506],[1.40646,42.52924,2549.8516],[1.42899,42.53146,2034.8752],[1.44656,42.51989,1952.2972],[1.44997,42.50407,1889.6523],[1.45968,42.50985,2125.5713],[1.47306,42.51506,2135.3677],[1.48719,42.51804,2013.729],[1.50281,42.52473,1669.3788],[1.51768,42.53216,1229.3583],[1.53181,42.5344,1453.1522],[1.54371,42.53811,1625.9861],[1.55635,42.53811,1932.8035],[1.55635,42.55224,1842.1273],[1.55561,42.56265,1660.5522],[1.54594,42.5634,1506.9894],[1.53255,42.56489,1501.7833],[1.51545,42.56786,1601.8325],[1.50132,42.57083,1957.4005],[1.4924,42.57753,1999.733],[1.48645,42.59017,2150.2986],[1.48124,42.59538,2313.5137],[1.47083,42.59686,2437.5469],[1.45968,42.59686,2181.3296]]]}}