{"type":"Feature","properties":{"GID_1":"AND.5_1","GID_0":"AND","country":"Andorra","state":"LaMassana","VARNAME_1":"NA","NL_NAME_1":"NA","TYPE_1":"Parròquia","ENGTYPE_1":"Parish","CC_1":"NA","HASC_1":"AD.MA","ISO_1":"AD-04","name":"LaMassana.state"},
"geometry":{"type": "MultiPolygon","coordinates": [[[[1.5505,42.5261,1801.49],[1.5516,42.5329,1775.3236],[1.5678,42.5473,2108.6318],[1.5405,42.548,1751.7673],[1.5287,42.5505,1329.6963],[1.5165,42.5643,1557.9668],[1.5102,42.5677,1702.7751],[1.5097,42.5765,1642.6824],[1.4951,42.5973,2578.3359],[1.4816,42.5991,2621.811],[1.4711,42.6056,2602.5007],[1.4587,42.6008,2502.9016],[1.4488,42.5989,2637.9797],[1.4476,42.5926,2706.3245],[1.4407,42.5881,2747.2476],[1.4284,42.5878,2843.1396],[1.4273,42.5831,2651.2297],[1.4331,42.5756,2630.2109],[1.4444,42.572,2588.7607],[1.4446,42.5667,2492.6799],[1.4262,42.5587,2492.1628],[1.4193,42.5495,2369.6467],[1.4192,42.5451,2318.8628],[1.4142,42.5377,2568.292],[1.4231,42.5379,2415.9238],[1.4397,42.5437,1846.6511],[1.4437,42.5426,1944.7289],[1.4526,42.5382,2257.3103],[1.4518,42.5344,2307.9077],[1.4539,42.5271,2321.3618],[1.46,42.5235,2222.4441],[1.4653,42.5138,2132.979],[1.4706,42.5093,2162.0139],[1.4779,42.5069,1759.2616],[1.4921,42.5066,1847.2483],[1.4958,42.5044,1632.78],[1.4989,42.5111,2007.2656],[1.503,42.5147,2008.6995],[1.5094,42.5158,1858.5216],[1.5197,42.5249,1164.6823],[1.5436,42.5248,1749.8411],[1.5505,42.5261,1801.49]]]]}}