{"type": "Feature","id": "4881","bbox": [1.49909,42.45307,1.65698,42.53886],"geometry": {"type": "Polygon","coordinates": [[[1.59279,42.52175,1946.7095],[1.5794,42.52696,1596.8003],[1.57643,42.53588,1299.3055],[1.56899,42.53886,1596.8282],[1.55635,42.53811,1932.8035],[1.54966,42.52993,1792.7417],[1.5385,42.52175,1587.241],[1.5333,42.51655,1162.5461],[1.52735,42.50837,1021.8085],[1.51917,42.49796,1129.7405],[1.50727,42.49275,1213.9905],[1.49909,42.48903,1258.2572],[1.51619,42.48606,1708.4906],[1.52958,42.48234,2022.9717],[1.54817,42.48457,2024.8516],[1.56453,42.48606,1827.1606],[1.57494,42.48457,2268.7947],[1.56825,42.47565,2096.8479],[1.56974,42.46524,2322.8706],[1.57266,42.45307,2633.1467],[1.60748,42.45643,2457.0591],[1.63952,42.46643,2733.0625],[1.65037,42.4934,2458.5549],[1.65399,42.49653,2526.6562],[1.65698,42.49764,2503.6367],[1.65377,42.50985,2614.374],[1.64113,42.51804,2457.5295],[1.62923,42.5225,2297.3333],[1.60841,42.52398,1948.5952],[1.59279,42.52175,1946.7095]]]}
,"properties": {"ISO3166-1-Alpha-3": "AND","country": "Andorra","fill": "#00F","name": "Escaldes-Engordany","area_km2": 66.06467,"hist_schema_id": "Elevation0-9000","hist_area_km2": {"1000": 0.04689,"1025": 0.4689,"1050": 0.35948,"1075": 0.25007,"1100": 0.28133,"1125": 0.31259,"1150": 0.37511,"1175": 0.42196,"1200": 0.5314,"1225": 0.62511,"1250": 0.76577,"1275": 0.6095,"1300": 0.76578,"1325": 0.53141,"1350": 0.56263,"1375": 0.59394,"1400": 0.56265,"1425": 0.50012,"1450": 0.59393,"1475": 0.6721,"1500": 0.85963,"1525": 0.67205,"1550": 0.54706,"1575": 0.85965,"1600": 0.75022,"1625": 0.95342,"1650": 0.70335,"1675": 0.76588,"1700": 0.79712,"1725": 0.76588,"1750": 0.67212,"1775": 0.56271,"1800": 0.64086,"1825": 0.6878,"1850": 0.56275,"1875": 0.57838,"1900": 0.67219,"1925": 0.70344,"1950": 0.71907,"1975": 0.78162,"2000": 1.00043,"2025": 0.78159,"2050": 1.12551,"2075": 0.84416,"2100": 1.09428,"2125": 1.03174,"2150": 0.90666,"2175": 1.26633,"2200": 1.26628,"2225": 1.51642,"2250": 1.67282,"2275": 1.61033,"2300": 2.00121,"2325": 1.89172,"2350": 1.90751,"2375": 2.04817,"2400": 2.07954,"2425": 1.89191,"2450": 1.93885,"2475": 1.7669,"2500": 1.67304,"2525": 1.67298,"2550": 1.82932,"2575": 1.64173,"2600": 1.04755,"2625": 1.11013,"2650": 0.84432,"2675": 0.86,"2700": 0.43782,"2725": 0.5003,"2750": 0.31274,"2775": 0.2658,"2800": 0.12507,"2825": 0.01563}}}