{"type": "Feature","bbox": [1.5216,42.45,1.6625,42.5261],"geometry": {"type": "MultiPolygon","coordinates": [[[[1.5216,42.4852,1856.9185],[1.525,42.4823,2021.2551],[1.5371,42.483,2156.2805],[1.5477,42.4795,2237.0903],[1.5605,42.4778,2304.925],[1.5605,42.472,2363.5857],[1.5582,42.4677,2466.1035],[1.5626,42.4639,2443.9607],[1.5645,42.4591,2551.4976],[1.567,42.459,2613.125],[1.5755,42.4518,2663.0659],[1.5809,42.45,2741.1191],[1.583,42.457,2516.5308],[1.5867,42.4618,2665.5593],[1.5976,42.4676,2599.2261],[1.6053,42.4648,2681.9529],[1.6234,42.4655,2708.5044],[1.63,42.4636,2809.4333],[1.6351,42.4672,2759.0781],[1.6405,42.4667,2733.0625],[1.6458,42.4688,2731.012],[1.6559,42.4682,2894.7346],[1.6625,42.474,2809.0037],[1.6616,42.4802,2676.7314],[1.6494,42.491,2436.7581],[1.6309,42.5018,2674.0469],[1.6096,42.5024,2366.0068],[1.6007,42.506,2403.5205],[1.5856,42.5057,2434.7288],[1.5693,42.5126,1733.3613],[1.5634,42.524,1204.3452],[1.5505,42.5261,1801.49],[1.5478,42.5194,1654.6578],[1.5374,42.5123,1052.6414],[1.5216,42.4852,1856.9185]]]]}
,"properties": {"GID_1": "AND.4_1","GID_0": "AND","country": "Andorra","state": "Escaldes-Engordany","VARNAME_1": "NA","NL_NAME_1": "NA","TYPE_1": "Parròquia","ENGTYPE_1": "Parish","CC_1": "NA","HASC_1": "AD.EE","ISO_1": "AD-08","name": "Escaldes-Engordany.state","area_km2": 46.74885,"hist_schema_id": "Elevation0-9000","hist_area_km2": {"1025": 0.07815,"1050": 0.18756,"1075": 0.14067,"1100": 0.15629,"1125": 0.23444,"1150": 0.23443,"1175": 0.34382,"1200": 0.2188,"1225": 0.29695,"1250": 0.32821,"1275": 0.32822,"1300": 0.20318,"1325": 0.25008,"1350": 0.23444,"1375": 0.28134,"1400": 0.31261,"1425": 0.25008,"1450": 0.31261,"1475": 0.42203,"1500": 0.57835,"1525": 0.39076,"1550": 0.39077,"1575": 0.56273,"1600": 0.45331,"1625": 0.5471,"1650": 0.40644,"1675": 0.42207,"1700": 0.43771,"1725": 0.43772,"1750": 0.48461,"1775": 0.39083,"1800": 0.43772,"1825": 0.5159,"1850": 0.469,"1875": 0.469,"1900": 0.56282,"1925": 0.57845,"1950": 0.57846,"1975": 0.65664,"2000": 0.75044,"2025": 0.62537,"2050": 0.95372,"2075": 0.70357,"2100": 0.90683,"2125": 0.79741,"2150": 0.65669,"2175": 1.09451,"2200": 1.11017,"2225": 1.23527,"2250": 1.25093,"2275": 1.36041,"2300": 1.70442,"2325": 1.46989,"2350": 1.50118,"2375": 1.62627,"2400": 1.65752,"2425": 1.54813,"2450": 1.5325,"2475": 1.32919,"2500": 1.28225,"2525": 1.204,"2550": 1.5167,"2575": 1.04764,"2600": 0.76621,"2625": 0.71928,"2650": 0.53169,"2675": 0.51607,"2700": 0.2502,"2725": 0.18767,"2750": 0.17203,"2775": 0.06256,"2800": 0.0782,"2875": 0.01564}}}