{"type":"Feature","properties":{"ISO3166-1-Alpha-3":"AND","country":"Andorra","fill":"#F0F","id":"4876","name":"Andorra la Vella"},
"geometry":{"type": "Polygon","coordinates": [[[1.49909,42.48903,1258.2572],[1.50727,42.49275,1213.9905],[1.51917,42.49796,1129.7405],[1.52735,42.50837,1021.8085],[1.5333,42.51655,1162.5461],[1.5385,42.52175,1587.241],[1.54966,42.52993,1792.7417],[1.55635,42.53811,1932.8035],[1.54371,42.53811,1625.9861],[1.53181,42.5344,1453.1522],[1.51768,42.53216,1229.3583],[1.50281,42.52473,1669.3788],[1.48719,42.51804,2013.729],[1.48868,42.50911,1857.2902],[1.48942,42.50316,1565.1404],[1.49314,42.49349,1020.9408],[1.49909,42.48903,1258.2572]]]}}