{"type":"Feature","properties":{"GID_1":"AND.1_1","GID_0":"AND","country":"Andorra","state":"AndorralaVella","VARNAME_1":"NA","NL_NAME_1":"NA","TYPE_1":"Parròquia","ENGTYPE_1":"Parish","CC_1":"NA","HASC_1":"AD.AN","ISO_1":"AD-07","name":"AndorralaVella.state"},
"geometry":{"type": "MultiPolygon","coordinates": [[[[1.5216,42.4852,1856.9185],[1.5374,42.5123,1052.6414],[1.5478,42.5194,1654.6578],[1.5505,42.5261,1801.49],[1.5436,42.5248,1749.8411],[1.5197,42.5249,1164.6823],[1.5094,42.5158,1858.5216],[1.503,42.5147,2008.6995],[1.4989,42.5111,2007.2656],[1.4958,42.5044,1632.78],[1.4952,42.4978,1149.5502],[1.4965,42.4932,1001.5513],[1.5112,42.4849,1712.3745],[1.5166,42.4836,1904.6356],[1.5216,42.4852,1856.9185]]]]}}