{"type":"Feature","properties":{"ISO3166-1-Alpha-3":"AND","country":"Andorra","fill":"#00F","id":"4878","name":"Ordino"},
"geometry":{"type": "Polygon","coordinates": [[[1.59735,42.62192,2628.1997],[1.54309,42.64936,2382.3928],[1.52779,42.64853,2512.4861],[1.49844,42.64024,2328.6375],[1.46681,42.64146,2471.6052],[1.45141,42.60205,2709.4165],[1.45968,42.59686,2181.3296],[1.47083,42.59686,2437.5469],[1.48124,42.59538,2313.5137],[1.48645,42.59017,2150.2986],[1.4924,42.57753,1999.733],[1.50132,42.57083,1957.4005],[1.51545,42.56786,1601.8325],[1.53255,42.56489,1501.7833],[1.54594,42.5634,1506.9894],[1.55561,42.56265,1660.5522],[1.55784,42.57455,2038.0148],[1.56453,42.58422,2666.6091],[1.57494,42.59166,2671.6868],[1.58833,42.59463,2445.9177],[1.59874,42.59761,2392.075],[1.59874,42.60653,2612.491],[1.59735,42.62192,2628.1997]]]}}