{"type":"Feature","properties":{"GID_1":"AND.6_1","GID_0":"AND","country":"Andorra","state":"Ordino","VARNAME_1":"NA","NL_NAME_1":"NA","TYPE_1":"Parròquia","ENGTYPE_1":"Parish","CC_1":"NA","HASC_1":"AD.OR","ISO_1":"AD-05","name":"Ordino.state"},
"geometry":{"type": "MultiPolygon","coordinates": [[[[1.6102,42.622,2646.5542],[1.605,42.6231,2711.6843],[1.6014,42.627,2844.6455],[1.5829,42.6354,2628.0259],[1.5753,42.6474,2600.2605],[1.5707,42.6492,2454.3716],[1.553,42.6521,2389.7351],[1.5329,42.6453,2657.8108],[1.5075,42.6435,2510.3811],[1.4959,42.6499,2592.437],[1.489,42.6517,2647.6826],[1.4852,42.6469,2306.7107],[1.4842,42.6411,2323.4326],[1.4789,42.6347,2423.064],[1.4772,42.6273,2326.481],[1.4799,42.6195,2447.8606],[1.4795,42.6109,2553.9084],[1.4711,42.6056,2602.5007],[1.4816,42.5991,2621.811],[1.4951,42.5973,2578.3359],[1.5097,42.5765,1642.6824],[1.5102,42.5677,1702.7751],[1.5165,42.5643,1557.9668],[1.5287,42.5505,1329.6963],[1.5405,42.548,1751.7673],[1.5678,42.5473,2108.6318],[1.5723,42.5534,2015.8875],[1.5738,42.559,2021.9415],[1.5682,42.5707,2143.2798],[1.568,42.5809,2520.7388],[1.5729,42.5848,2572.4092],[1.582,42.5999,2579.0442],[1.5876,42.6013,2660.2549],[1.5944,42.6073,2704.7688],[1.6007,42.6094,2680.2527],[1.606,42.6135,2806.7861],[1.6096,42.6165,2629.9126],[1.6102,42.622,2646.5542]]]]}}