{"type":"Feature","properties":{"ISO3166-1-Alpha-3":"AND","country":"Andorra","fill":"#FF0","id":"4882","name":"Sant Julià de Lòria"},
"geometry":{"type": "Polygon","coordinates": [[[1.49909,42.48903,1258.2572],[1.49314,42.49349,1020.9408],[1.48942,42.50316,1565.1404],[1.48868,42.50911,1857.2902],[1.48719,42.51804,2013.729],[1.47306,42.51506,2135.3677],[1.45968,42.50985,2125.5713],[1.44997,42.50407,1889.6523],[1.43023,42.49356,1763.2108],[1.42454,42.49247,1746.3756],[1.40759,42.48676,2150.1021],[1.43643,42.45348,1694.4568],[1.43643,42.44095,1450.8514],[1.4479,42.43465,1101.1079],[1.50847,42.42868,1738.8562],[1.51663,42.4295,1830.8125],[1.52821,42.43423,2100.7808],[1.53451,42.43992,1968.1987],[1.53885,42.44565,1954.9541],[1.54443,42.45036,2212.3052],[1.57266,42.45307,2633.1467],[1.56974,42.46524,2322.8706],[1.56825,42.47565,2096.8479],[1.57494,42.48457,2268.7947],[1.56453,42.48606,1827.1606],[1.54817,42.48457,2024.8516],[1.52958,42.48234,2022.9717],[1.51619,42.48606,1708.4906],[1.49909,42.48903,1258.2572]]]}}