{"type":"Feature","properties":{"GID_1":"AND.7_1","GID_0":"AND","country":"Andorra","state":"SantJuliàdeLòria","VARNAME_1":"NA","NL_NAME_1":"NA","TYPE_1":"Parròquia","ENGTYPE_1":"Parish","CC_1":"NA","HASC_1":"AD.JL","ISO_1":"NA","name":"SantJuliàdeLòria.state"},
"geometry":{"type": "MultiPolygon","coordinates": [[[[1.4958,42.5044,1632.78],[1.4921,42.5066,1847.2483],[1.4779,42.5069,1759.2616],[1.469,42.5107,2310.7966],[1.4434,42.4952,1431.3643],[1.4258,42.4935,1733.877],[1.4192,42.4838,2117.8667],[1.4334,42.4818,2147.7529],[1.441,42.4755,1930.728],[1.4401,42.4644,2030.9983],[1.4475,42.4601,1921.2786],[1.4418,42.4535,1802.9097],[1.4462,42.4482,1613.989],[1.4468,42.4438,1436.5321],[1.4441,42.4437,1338.2273],[1.4516,42.4375,1177.047],[1.4566,42.4359,1202.4446],[1.4946,42.4332,1373.8762],[1.5123,42.4296,1748.7139],[1.5258,42.4322,2022.4368],[1.5526,42.4335,2201.4932],[1.5531,42.4435,2417.8909],[1.5549,42.4461,2497.8999],[1.5597,42.4483,2521.6426],[1.557,42.4539,2576.366],[1.5612,42.4587,2607.325],[1.5645,42.4591,2551.4976],[1.5626,42.4639,2443.9607],[1.5582,42.4677,2466.1035],[1.5605,42.472,2363.5857],[1.5605,42.4778,2304.925],[1.5477,42.4795,2237.0903],[1.5371,42.483,2156.2805],[1.525,42.4823,2021.2551],[1.5216,42.4852,1856.9185],[1.5166,42.4836,1904.6356],[1.5112,42.4849,1712.3745],[1.4965,42.4932,1001.5513],[1.4952,42.4978,1149.5502],[1.4958,42.5044,1632.78]]]]}}